2022-057A               
1 52732U 22057A   22158.85790677  .00006228  00000+0  37135-3 0  9991
2 52732  97.5198 273.6817 0009077 211.7684 148.3000 15.11483239  1987
2022-057B               
1 52733U 22057B   22158.85729104  .00007032  00000+0  41798-3 0  9993
2 52733  97.5096 273.6643 0007618 206.0784 154.0064 15.11560650  1986
2022-057C               
1 52734U 22057C   22158.85587976  .00008595  00000+0  50718-3 0  9990
2 52734  97.5168 273.6787 0009141 206.2765 153.8002 15.11749358  1983
2022-057D               
1 52735U 22057D   22158.85590026  .00004285  00000+0  25528-3 0  9994
2 52735  97.5137 273.6733 0008797 202.3928 157.6920 15.11693095  1982
2022-057E               
1 52736U 22057E   22158.85549898  .00006229  00000+0  36865-3 0  9992
2 52736  97.5072 273.6628 0007743 199.0951 160.9990 15.11764963  1989
2022-057F               
1 52737U 22057F   22158.85530637  .00002422  00000+0  14579-3 0  9993
2 52737  97.5151 273.6760 0008651 198.0029 162.0896 15.11739179  1988
2022-057G               
1 52738U 22057G   22158.85476571  .00003803  00000+0  22624-3 0  9994
2 52738  97.5111 273.6696 0008254 195.1715 164.9269 15.11820670  1984
2022-057H               
1 52739U 22057H   22158.85478889  .00002686  00000+0  16096-3 0  9993
2 52739  97.5193 273.6847 0009283 199.3056 160.7824 15.11803824  1983
2022-057J               
1 52740U 22057J   22158.85425462  .00005107  00000+0  30168-3 0  9991
2 52740  97.5273 273.7001 0010729 204.0327 156.0404 15.11896454  1982
2022-057K               
1 52741U 22057K   22158.85427572  .00004624  00000+0  27366-3 0  9995
2 52741  97.5215 273.6889 0010203 200.9557 159.1257 15.11883879  1986
2022-057L               
1 52742U 22057L   22158.85399389  .00005686  00000+0  33522-3 0  9990
2 52742  97.5143 273.6766 0008549 194.0447 166.0546 15.11936897  1989
2022-057M               
1 52743U 22057M   22158.85370062  .00003798  00000+0  22513-3 0  9998
2 52743  97.5118 273.6724 0008675 192.8281 167.2730 15.11945169  1988
2022-057N               
1 52744U 22057N   22158.72073416  .00002276  00000+0  13624-3 0  9991
2 52744  97.5217 273.5611 0009973 195.7955 164.2966 15.11989547  1969
2022-057P               
1 52745U 22057P   22158.85202496  .00001405  00000+0  85258-4 0  9994
2 52745  97.5133 273.6756 0009153 186.1575 173.9544 15.12115085  1980
2022-057Q               
1 52746U 22057Q   22158.85188404  .00000926  00000+0  57437-4 0  9992
2 52746  97.5096 273.6701 0009268 186.4688 173.6424 15.12122036  1982
2022-057R               
1 52747U 22057R   22158.85146788  .00002762  00000+0  16361-3 0  9992
2 52747  97.5188 273.6886 0010095 190.8180 169.2835 15.12192385  1986
2022-057S               
1 52748U 22057S   22158.85130143  .00002713  00000+0  16070-3 0  9994
2 52748  97.5148 273.6803 0009679 185.2995 174.8135 15.12211589  1983
2022-057T               
1 52749U 22057T   22158.85067209  .00004649  00000+0  27191-3 0  9993
2 52749  97.5149 273.6813 0009858 183.4114 176.7051 15.12310052  1981
2022-057U               
1 52750U 22057U   22158.71294432  .00009084  00000+0  51650-3 0  9995
2 52750  97.5213 273.5770 0012413 188.6302 171.4717 15.13042001  1969
2022-057V               
1 52751U 22057V   22158.85104459  .00001482  00000+0  89450-4 0  9994
2 52751  97.5124 273.6750 0009713 183.2305 176.8864 15.12224711  1986
2022-057W               
1 52752U 22057W   22158.85065476  .00002710  00000+0  16017-3 0  9993
2 52752  97.5169 273.6861 0010068 186.5713 173.5387 15.12287220  1981
2022-057X               
1 52753U 22057X   22158.84990098  .00009199  00000+0  53235-3 0  9991
2 52753  97.5140 273.6804 0010308 183.4049 176.7113 15.12422935  1989
2022-057Y               
1 52754U 22057Y   22158.84985363  .00004307  00000+0  25155-3 0  9997
2 52754  97.5172 273.6881 0010348 186.1014 174.0092 15.12397204  1983
2022-057Z               
1 52755U 22057Z   22158.84956501  .00004823  00000+0  28089-3 0  9992
2 52755  97.5168 273.6888 0010322 185.7113 174.4002 15.12441553  1985
2022-057AA              
1 52756U 22057AA  22158.84921583  .00002461  00000+0  14508-3 0  9992
2 52756  97.5135 273.6807 0010653 182.2542 177.8643 15.12460660  1984
2022-057AB              
1 52757U 22057AB  22158.84901625  .00001436  00000+0  86211-4 0  9990
2 52757  97.5177 273.6899 0010886 186.2575 173.8522 15.12462877  1984
2022-057AC              
1 52758U 22057AC  22158.84758431  .00004691  00000+0  27150-3 0  9998
2 52758  97.5175 273.6919 0011510 186.0104 174.0991 15.12670911  1980
2022-057AD              
1 52759U 22057AD  22158.84723358  .00004386  00000+0  25384-3 0  9997
2 52759  97.5169 273.6914 0011669 185.9799 174.1295 15.12707154  1980
2022-057AE              
1 52760U 22057AE  22158.78136325  .00000944  00000+0  57671-4 0  9995
2 52760  97.5156 273.6211 0011738 183.0807 177.0354 15.12626473  1975
2022-057AF              
1 52761U 22057AF  22158.84694068  .00001120  00000+0  67632-4 0  9991
2 52761  97.5169 273.6902 0012086 183.8680 176.2459 15.12696232  1989
2022-057AG              
1 52762U 22057AG  22158.84628093  .00003807  00000+0  22015-3 0  9996
2 52762  97.5169 273.6927 0012075 186.1123 173.9962 15.12814895  1983
2022-057AH              
1 52763U 22057AH  22158.84584322  .00001344  00000+0  80128-4 0  9997
2 52763  97.5173 273.6922 0012495 181.5412 178.5782 15.12827976  1985
2022-057AJ              
1 52764U 22057AJ  22158.84483368  .00002610  00000+0  15146-3 0  9990
2 52764  97.5144 273.6881 0012758 179.4999 180.6247 15.12964623  1987
2022-057AK              
1 52765U 22057AK  22158.84308537  .00002819  00000+0  16231-3 0  9992
2 52765  97.5205 273.7018 0013626 177.9063 182.2227 15.13170846  1982
FORESAIL 1              
1 52766U 22057AL  22158.84299050  .00002536  00000+0  14636-3 0  9995
2 52766  97.5208 273.7036 0013963 180.7814 179.3398 15.13178921  1984
2022-057AM              
1 52767U 22057AM  22158.84252253  .00005664  00000+0  32136-3 0  9990
2 52767  97.5136 273.6901 0013480 177.1549 182.9762 15.13273055  1983
2022-057AN              
1 52768U 22057AN  22158.84231521  .00005575  00000+0  31619-3 0  9992
2 52768  97.5136 273.6904 0013574 176.9055 183.2262 15.13296147  1986
2022-057AP              
1 52769U 22057AP  22158.84192793  .00007470  00000+0  42147-3 0  9994
2 52769  97.5254 273.7136 0014624 182.3139 177.8027 15.13356248  1984
2022-057AQ              
1 52770U 22057AQ  22158.84179996  .00002216  00000+0  12791-3 0  9991
2 52770  97.5141 273.6923 0013421 171.8629 188.2823 15.13312394  1989
2022-057AR              
1 52771U 22057AR  22158.84065583  .00003655  00000+0  20756-3 0  9996
2 52771  97.5179 273.7007 0014365 173.9951 186.1455 15.13466089  1983
2022-057AS              
1 52772U 22057AS  22158.83987628  .00002623  00000+0  14966-3 0  9999
2 52772  97.5157 273.6976 0014757 172.9657 187.1784 15.13542650  1986
2022-057AT              
1 52773U 22057AT  22158.84522367  .00007538  00000+0  42946-3 0  9995
2 52773  97.5210 273.7065 0012552 187.9350 172.1684 15.13026031  1987
2022-058A               
1 52785U 22058A   22158.85771407  .00001122  00000+0  15194-3 0  9999
2 52785  49.9979 234.2473 0012111 305.8798  54.1016 14.86365155   851
2022-058B               
1 52786U 22058B   22158.85726509  .00001206  00000+0  16097-3 0  9999
2 52786  50.0034 234.2466 0012062 309.4788  50.5082 14.86484203   830
2022-058C               
1 52787U 22058C   22158.85697359  .00001123  00000+0  15143-3 0  9999
2 52787  49.9932 234.2410 0012672 309.1860  50.7951 14.86558286   839
2022-058D               
1 52788U 22058D   22158.85640885  .00001111  00000+0  14956-3 0  9990
2 52788  50.0075 234.2430 0012924 311.9586  48.0252 14.86707264   835
2022-058E               
1 52789U 22058E   22158.85590465  .00001133  00000+0  15154-3 0  9994
2 52789  49.9910 234.2332 0013907 312.6033  47.3733 14.86837137   838
2022-058F               
1 52790U 22058F   22158.78770451  .00000980  00000+0  13388-3 0  9999
2 52790  50.0088 234.5468 0014105 317.4661  42.5186 14.87100547   820
2022-058G               
1 52791U 22058G   22158.85435863  .00001079  00000+0  14420-3 0  9991
2 52791  49.9928 234.2238 0015138 317.8780  42.0995 14.87241210   833
2022-058H               
1 52792U 22058H   22158.78637536  .00001018  00000+0  13693-3 0  9999
2 52792  49.9971 234.5338 0016031 319.4794  40.4954 14.87450469   826
2022-058J               
1 52793U 22058J   22158.78590121  .00001186  00000+0  15472-3 0  9991
2 52793  50.0022 234.5331 0016231 322.0683  37.9121 14.87578090   850
CZ-2C R/B               
1 52794U 22058K   22158.63410485  .00001800  00000+0  11228-3 0  9998
2 52794  50.1745 234.7030 0104059  61.5919 299.5489 15.10746020   800
PROGRESS-MS 20          
1 52795U 22059A   22158.15063898  .00006400  00000+0  12044-3 0  9997
2 52795  51.6454  26.3008 0004489 203.5655 299.2429 15.49899681343620
SHENZHOU 14             
1 52797U 22060A   22158.47985938  .00002704  00000+0  36633-4 0  9998
2 52797  41.4720 277.9461 0004458 232.6990 209.1951 15.59944483 63253
2022-060B               
1 52798U 22060B   22157.59602904  .25845657  64749-5  20000-1 0  9993
2 52798  41.4689 282.7762 0103880 134.8397 226.2336 16.02969855   245
2022-060C               
1 52799U 22060C   22157.51173230 -.00002296  72694-5  00000+0 0  9993
2 52799  41.3295 284.0323 0199247 125.7080 333.0430 15.82158031   229
2022-060D               
1 52800U 22060D   22157.68924636 -.00002290  72502-5  00000+0 0  9990
2 52800  41.3678 282.8894 0211828 124.1350 238.8342 15.78257394   253
2022-060E               
1 52801U 22060E   22157.36932009 -.00002194  69449-5  00000+0 0  9998
2 52801  41.0685 284.5238 0123495 165.3532 231.9799 15.84772631   197
2022-060F               
1 52802U 22060F   22157.67621979 -.00002353  74520-5  00000+0 0  9997
2 52802  41.6324 282.1422 0195064 154.0855 207.6986 15.86012985   297
